{"fetched_at":"2026-07-23T07:05:18.920Z","source":"https://celestrak.org/NORAD/elements/gp.php?GROUP=oneweb&FORMAT=JSON","constellation":"oneweb","records":[{"OBJECT_NAME":"ONEWEB-0120","OBJECT_ID":"2020-100J","EPOCH":"2026-07-22T19:57:42.456960","CLASSIFICATION_TYPE":"U","MEAN_MOTION":13.12442602,"ECCENTRICITY":0.00020427,"INCLINATION":87.897,"RA_OF_ASC_NODE":343.5829,"ARG_OF_PERICENTER":95.274,"MEAN_ANOMALY":264.8622,"EPHEMERIS_TYPE":0,"NORAD_CAT_ID":47266,"ELEMENT_SET_NO":999,"REV_AT_EPOCH":26940,"BSTAR":0.00084409705,"MEAN_MOTION_DOT":0.00000316,"MEAN_MOTION_DDOT":0},{"OBJECT_NAME":"ONEWEB-0121","OBJECT_ID":"2020-100K","EPOCH":"2026-07-22T19:40:25.080672","CLASSIFICATION_TYPE":"U","MEAN_MOTION":13.12444063,"ECCENTRICITY":0.00015873,"INCLINATION":87.8982,"RA_OF_ASC_NODE":343.5744,"ARG_OF_PERICENTER":102.8401,"MEAN_ANOMALY":257.2905,"EPHEMERIS_TYPE":0,"NORAD_CAT_ID":47267,"ELEMENT_SET_NO":999,"REV_AT_EPOCH":26931,"BSTAR":0.000015344227,"MEAN_MOTION_DOT":1.8e-7,"MEAN_MOTION_DDOT":0},{"OBJECT_NAME":"ONEWEB-0122","OBJECT_ID":"2020-100L","EPOCH":"2026-07-22T19:31:53.064768","CLASSIFICATION_TYPE":"U","MEAN_MOTION":13.12442782,"ECCENTRICITY":0.00020351,"INCLINATION":87.8982,"RA_OF_ASC_NODE":343.5807,"ARG_OF_PERICENTER":98.8231,"MEAN_ANOMALY":261.3128,"EPHEMERIS_TYPE":0,"NORAD_CAT_ID":47268,"ELEMENT_SET_NO":999,"REV_AT_EPOCH":26922,"BSTAR":-0.0005417257,"MEAN_MOTION_DOT":-0.00000182,"MEAN_MOTION_DDOT":0},{"OBJECT_NAME":"ONEWEB-0123","OBJECT_ID":"2020-100M","EPOCH":"2026-07-22T08:27:05.106816","CLASSIFICATION_TYPE":"U","MEAN_MOTION":13.1244397,"ECCENTRICITY":0.00018259,"INCLINATION":87.8973,"RA_OF_ASC_NODE":343.6752,"ARG_OF_PERICENTER":94.2242,"MEAN_ANOMALY":265.9096,"EPHEMERIS_TYPE":0,"NORAD_CAT_ID":47269,"ELEMENT_SET_NO":999,"REV_AT_EPOCH":26930,"BSTAR":-0.00067790767,"MEAN_MOTION_DOT":-0.00000231,"MEAN_MOTION_DDOT":0},{"OBJECT_NAME":"ONEWEB-0124","OBJECT_ID":"2020-100N","EPOCH":"2026-07-22T15:31:34.340736","CLASSIFICATION_TYPE":"U","MEAN_MOTION":13.12443095,"ECCENTRICITY":0.00017662,"INCLINATION":87.8969,"RA_OF_ASC_NODE":343.6197,"ARG_OF_PERICENTER":98.9443,"MEAN_ANOMALY":261.1885,"EPHEMERIS_TYPE":0,"NORAD_CAT_ID":47270,"ELEMENT_SET_NO":999,"REV_AT_EPOCH":26922,"BSTAR":-0.0010673457,"MEAN_MOTION_DOT":-0.00000371,"MEAN_MOTION_DDOT":0},{"OBJECT_NAME":"ONEWEB-0125","OBJECT_ID":"2020-100P","EPOCH":"2026-07-22T18:39:25.668288","CLASSIFICATION_TYPE":"U","MEAN_MOTION":13.12441469,"ECCENTRICITY":0.00015392,"INCLINATION":87.8983,"RA_OF_ASC_NODE":343.5814,"ARG_OF_PERICENTER":95.1671,"MEAN_ANOMALY":264.9633,"EPHEMERIS_TYPE":0,"NORAD_CAT_ID":47271,"ELEMENT_SET_NO":999,"REV_AT_EPOCH":26930,"BSTAR":0.00031463358,"MEAN_MOTION_DOT":0.00000126,"MEAN_MOTION_DDOT":0},{"OBJECT_NAME":"ONEWEB-0126","OBJECT_ID":"2020-100Q","EPOCH":"2026-07-22T19:08:54.855168","CLASSIFICATION_TYPE":"U","MEAN_MOTION":13.12442377,"ECCENTRICITY":0.00019672,"INCLINATION":87.8974,"RA_OF_ASC_NODE":343.5903,"ARG_OF_PERICENTER":94.8289,"MEAN_ANOMALY":265.3064,"EPHEMERIS_TYPE":0,"NORAD_CAT_ID":47272,"ELEMENT_SET_NO":999,"REV_AT_EPOCH":26937,"BSTAR":-0.00097560697,"MEAN_MOTION_DOT":-0.00000338,"MEAN_MOTION_DDOT":0},{"OBJECT_NAME":"ONEWEB-0127","OBJECT_ID":"2020-100R","EPOCH":"2026-07-22T20:09:41.878656","CLASSIFICATION_TYPE":"U","MEAN_MOTION":13.12443298,"ECCENTRICITY":0.00019838,"INCLINATION":87.8972,"RA_OF_ASC_NODE":343.58,"ARG_OF_PERICENTER":94.4259,"MEAN_ANOMALY":265.7096,"EPHEMERIS_TYPE":0,"NORAD_CAT_ID":47273,"ELEMENT_SET_NO":999,"REV_AT_EPOCH":26940,"BSTAR":0.0012539795,"MEAN_MOTION_DOT":0.00000464,"MEAN_MOTION_DDOT":0},{"OBJECT_NAME":"ONEWEB-0128","OBJECT_ID":"2020-100S","EPOCH":"2026-07-22T20:41:24.246816","CLASSIFICATION_TYPE":"U","MEAN_MOTION":13.12442834,"ECCENTRICITY":0.00018686,"INCLINATION":87.8967,"RA_OF_ASC_NODE":343.588,"ARG_OF_PERICENTER":105.4153,"MEAN_ANOMALY":254.7182,"EPHEMERIS_TYPE":0,"NORAD_CAT_ID":47274,"ELEMENT_SET_NO":999,"REV_AT_EPOCH":26942,"BSTAR":-0.000061107522,"MEAN_MOTION_DOT":-9e-8,"MEAN_MOTION_DDOT":0},{"OBJECT_NAME":"ONEWEB-0129","OBJECT_ID":"2020-100T","EPOCH":"2026-07-22T20:12:08.820000","CLASSIFICATION_TYPE":"U","MEAN_MOTION":13.12442255,"ECCENTRICITY":0.00028511,"INCLINATION":87.8981,"RA_OF_ASC_NODE":343.5699,"ARG_OF_PERICENTER":85.5355,"MEAN_ANOMALY":274.6099,"EPHEMERIS_TYPE":0,"NORAD_CAT_ID":47275,"ELEMENT_SET_NO":999,"REV_AT_EPOCH":26935,"BSTAR":0.0011299622,"MEAN_MOTION_DOT":0.00000419,"MEAN_MOTION_DDOT":0},{"OBJECT_NAME":"ONEWEB-0130","OBJECT_ID":"2020-100U","EPOCH":"2026-07-22T19:01:23.091168","CLASSIFICATION_TYPE":"U","MEAN_MOTION":13.12441797,"ECCENTRICITY":0.00019716,"INCLINATION":87.898,"RA_OF_ASC_NODE":343.5751,"ARG_OF_PERICENTER":98.7741,"MEAN_ANOMALY":261.3611,"EPHEMERIS_TYPE":0,"NORAD_CAT_ID":47276,"ELEMENT_SET_NO":999,"REV_AT_EPOCH":26931,"BSTAR":-0.00082325218,"MEAN_MOTION_DOT":-0.00000283,"MEAN_MOTION_DDOT":0},{"OBJECT_NAME":"ONEWEB-0131","OBJECT_ID":"2020-100V","EPOCH":"2026-07-22T18:56:30.776640","CLASSIFICATION_TYPE":"U","MEAN_MOTION":13.12441474,"ECCENTRICITY":0.00018942,"INCLINATION":87.897,"RA_OF_ASC_NODE":343.5905,"ARG_OF_PERICENTER":102.0201,"MEAN_ANOMALY":258.114,"EPHEMERIS_TYPE":0,"NORAD_CAT_ID":47277,"ELEMENT_SET_NO":999,"REV_AT_EPOCH":26935,"BSTAR":-0.00063792357,"MEAN_MOTION_DOT":-0.00000217,"MEAN_MOTION_DDOT":0},{"OBJECT_NAME":"ONEWEB-0132","OBJECT_ID":"2020-100W","EPOCH":"2026-07-22T19:37:58.575648","CLASSIFICATION_TYPE":"U","MEAN_MOTION":13.12443888,"ECCENTRICITY":0.00018298,"INCLINATION":87.8972,"RA_OF_ASC_NODE":343.5876,"ARG_OF_PERICENTER":99.5946,"MEAN_ANOMALY":260.539,"EPHEMERIS_TYPE":0,"NORAD_CAT_ID":47278,"ELEMENT_SET_NO":999,"REV_AT_EPOCH":26925,"BSTAR":-0.00046648078,"MEAN_MOTION_DOT":-0.00000155,"MEAN_MOTION_DDOT":0},{"OBJECT_NAME":"ONEWEB-0133","OBJECT_ID":"2020-100X","EPOCH":"2026-07-22T20:02:09.775104","CLASSIFICATION_TYPE":"U","MEAN_MOTION":13.12444797,"ECCENTRICITY":0.00018443,"INCLINATION":87.8984,"RA_OF_ASC_NODE":343.5644,"ARG_OF_PERICENTER":102.0404,"MEAN_ANOMALY":258.0931,"EPHEMERIS_TYPE":0,"NORAD_CAT_ID":47279,"ELEMENT_SET_NO":999,"REV_AT_EPOCH":26941,"BSTAR":0.0011282642,"MEAN_MOTION_DOT":0.00000419,"MEAN_MOTION_DDOT":0},{"OBJECT_NAME":"ONEWEB-0134","OBJECT_ID":"2020-100Y","EPOCH":"2026-07-22T08:19:46.141248","CLASSIFICATION_TYPE":"U","MEAN_MOTION":13.12443432,"ECCENTRICITY":0.00020961,"INCLINATION":87.8984,"RA_OF_ASC_NODE":343.6581,"ARG_OF_PERICENTER":101.0587,"MEAN_ANOMALY":259.0778,"EPHEMERIS_TYPE":0,"NORAD_CAT_ID":47280,"ELEMENT_SET_NO":999,"REV_AT_EPOCH":26932,"BSTAR":-0.00097663165,"MEAN_MOTION_DOT":-0.00000339,"MEAN_MOTION_DDOT":0},{"OBJECT_NAME":"ONEWEB-0135","OBJECT_ID":"2020-100Z","EPOCH":"2026-07-22T20:26:45.979584","CLASSIFICATION_TYPE":"U","MEAN_MOTION":13.12443188,"ECCENTRICITY":0.00020635,"INCLINATION":87.8971,"RA_OF_ASC_NODE":343.5761,"ARG_OF_PERICENTER":105.8724,"MEAN_ANOMALY":254.2633,"EPHEMERIS_TYPE":0,"NORAD_CAT_ID":47281,"ELEMENT_SET_NO":999,"REV_AT_EPOCH":26941,"BSTAR":0.00058466973,"MEAN_MOTION_DOT":0.00000223,"MEAN_MOTION_DDOT":0}]}
