{"epoch":1784799577,"count":18318,"objects":[{"id":"47266","name":"ONEWEB-0120","type":"PAYLOAD","l1":"1 47266U 20100J   26203.83174140  .00000316  00000-0  84410-3 0  9999","l2":"2 47266  87.8970 343.5829 0002043  95.2740 264.8622 13.12442602269402"},{"id":"47267","name":"ONEWEB-0121","type":"PAYLOAD","l1":"1 47267U 20100K   26203.81973473  .00000018  00000-0  15344-4 0  9994","l2":"2 47267  87.8982 343.5744 0001587 102.8401 257.2905 13.12444063269316"},{"id":"47268","name":"ONEWEB-0122","type":"PAYLOAD","l1":"1 47268U 20100L   26203.81380862 -.00000182  00000-0 -54173-3 0  9995","l2":"2 47268  87.8982 343.5807 0002035  98.8231 261.3128 13.12442782269220"},{"id":"47269","name":"ONEWEB-0123","type":"PAYLOAD","l1":"1 47269U 20100M   26203.35214244 -.00000231  00000-0 -67791-3 0  9990","l2":"2 47269  87.8973 343.6752 0001826  94.2242 265.9096 13.12443970269303"},{"id":"47270","name":"ONEWEB-0124","type":"PAYLOAD","l1":"1 47270U 20100N   26203.64692524 -.00000371  00000-0 -10673-2 0  9996","l2":"2 47270  87.8969 343.6197 0001766  98.9443 261.1885 13.12443095269223"},{"id":"47271","name":"ONEWEB-0125","type":"PAYLOAD","l1":"1 47271U 20100P   26203.77738042  .00000126  00000-0  31463-3 0  9994","l2":"2 47271  87.8983 343.5814 0001539  95.1671 264.9633 13.12441469269309"},{"id":"47272","name":"ONEWEB-0126","type":"PAYLOAD","l1":"1 47272U 20100Q   26203.79785712 -.00000338  00000-0 -97561-3 0  9991","l2":"2 47272  87.8974 343.5903 0001967  94.8289 265.3064 13.12442377269374"},{"id":"47273","name":"ONEWEB-0127","type":"PAYLOAD","l1":"1 47273U 20100R   26203.84006804  .00000464  00000-0  12540-2 0  9997","l2":"2 47273  87.8972 343.5800 0001984  94.4259 265.7096 13.12443298269407"},{"id":"47274","name":"ONEWEB-0128","type":"PAYLOAD","l1":"1 47274U 20100S   26203.86208619 -.00000009  00000-0 -61108-4 0  9991","l2":"2 47274  87.8967 343.5880 0001869 105.4153 254.7182 13.12442834269429"},{"id":"47275","name":"ONEWEB-0129","type":"PAYLOAD","l1":"1 47275U 20100T   26203.84176875  .00000419  00000-0  11300-2 0  9998","l2":"2 47275  87.8981 343.5699 0002851  85.5355 274.6099 13.12442255269355"},{"id":"47276","name":"ONEWEB-0130","type":"PAYLOAD","l1":"1 47276U 20100U   26203.79262837 -.00000283  00000-0 -82325-3 0  9994","l2":"2 47276  87.8980 343.5751 0001972  98.7741 261.3611 13.12441797269311"},{"id":"47277","name":"ONEWEB-0131","type":"PAYLOAD","l1":"1 47277U 20100V   26203.78924510 -.00000217  00000-0 -63792-3 0  9991","l2":"2 47277  87.8970 343.5905 0001894 102.0201 258.1140 13.12441474269352"},{"id":"47278","name":"ONEWEB-0132","type":"PAYLOAD","l1":"1 47278U 20100W   26203.81803907 -.00000155  00000-0 -46648-3 0  9994","l2":"2 47278  87.8972 343.5876 0001830  99.5946 260.5390 13.12443888269252"},{"id":"47279","name":"ONEWEB-0133","type":"PAYLOAD","l1":"1 47279U 20100X   26203.83483536  .00000419  00000-0  11283-2 0  9996","l2":"2 47279  87.8984 343.5644 0001844 102.0404 258.0931 13.12444797269414"},{"id":"47280","name":"ONEWEB-0134","type":"PAYLOAD","l1":"1 47280U 20100Y   26203.34706182 -.00000339  00000-0 -97663-3 0  9999","l2":"2 47280  87.8984 343.6581 0002096 101.0587 259.0778 13.12443432269323"},{"id":"47281","name":"ONEWEB-0135","type":"PAYLOAD","l1":"1 47281U 20100Z   26203.85192106  .00000223  00000-0  58467-3 0  9990","l2":"2 47281  87.8971 343.5761 0002063 105.8724 254.2633 13.12443188269413"}]}